SUNSTORM                
1 49068U 21073C   24013.17868597  .00043571  00000+0  14176-2 0  9991
2 49068  97.4642  90.5032 0017194  95.2784 265.0419 15.31600077133012
LEDSAT                  
1 49069U 21073D   24013.15412648  .00016253  00000+0  76959-3 0  9997
2 49069  97.4591  85.8804 0022745 109.9614 250.4073 15.19183700132729
STARLINK-3100           
1 49144U 21082Q   24012.66815962 -.00000495  00000+0 -33715-4 0  9999
2 49144  70.0021 118.8107 0002414 243.7741 116.3170 14.98319166128096
CUTE                    
1 49263U 21088D   24012.75106050  .00014611  00000+0  80985-3 0  9991
2 49263  97.5195  80.3526 0014656 261.9792  97.9777 15.13804404125930
2021-091B               
1 49316U 21091B   24013.14464233  .00006849  00000+0  33383-3 0  9992
2 49316  97.4538 202.7961 0002095 336.7884  23.3256 15.18648848124532
2021-091H               
1 49322U 21091H   24013.15615995  .00019476  00000+0  63759-3 0  9993
2 49322  97.4466 207.7394 0011065 273.6237  86.3739 15.31659256124874
2021-091K               
1 49324U 21091K   24013.22712290  .00101868  00000+0  17789-2 0  9997
2 49324  97.4138 211.5235 0007143 263.4220  96.6218 15.50291055125259
SDGSAT 1                
1 49387U 21100A   24013.17844449  .00005991  00000+0  28931-3 0  9995
2 49387  97.3895  75.1113 0002127 125.7615 234.3818 15.19020524121362
ASTERISC                
1 49395U 21102A   24012.71942692  .00021598  00000+0  11336-2 0  9995
2 49395  97.4596  66.2628 0013664  55.5603 304.6918 15.15668190119538
TEIKYOSAT-4 (OORURI)    
1 49396U 21102B   24013.14508977  .00003502  00000+0  26176-3 0  9992
2 49396  97.4853  63.4287 0014877  88.0837 272.2093 15.03333450119306
Z-SAT                   
1 49399U 21102E   24013.15460409  .00005949  00000+0  40277-3 0  9998
2 49399  97.4561  64.7039 0022472  73.7629 286.6069 15.06656436119480
HIBARI                  
1 49400U 21102F   24013.13818180  .00007902  00000+0  49763-3 0  9992
2 49400  97.4550  65.7172 0020206  65.0318 295.3007 15.09266254119568
KOSEN-1                 
1 49402U 21102H   24013.07686070  .00007199  00000+0  45625-3 0  9999
2 49402  97.4493  65.5875 0021234  61.2861 299.0498 15.09044110119589
GLOBAL-14               
1 49469U 21106A   24012.49827061 -.00000036  00000+0  60569-5 0  9998
2 49469  42.0115  67.5047 0002583  32.6940 327.4059 15.38815069121514
GLOBAL-15               
1 49470U 21106B   24012.66528039  .00037214  00000+0  75139-3 0  9996
2 49470  42.0023 104.7434 0022533  15.2710 344.8808 15.45538508121105
GAOFEN-3 02             
1 49495U 21109A   24013.16034276  .00000151  00000+0  59001-4 0  9998
2 49495  98.4138  22.6281 0002058  94.1090 266.0335 14.42208280112601
GLOBAL-12               
1 49772U 21115BA  24012.90913227  .00028615  00000+0  73187-3 0  9991
2 49772  53.2065 264.3197 0004785  88.5346 271.6207 15.39226137119265
GLOBAL-13               
1 49773U 21115BB  24013.01081873  .00025749  00000+0  66184-3 0  9992
2 49773  53.2076 265.0369 0002112  38.3117 321.8038 15.39139233119268
2021-117A               
1 49812U 21117A   24013.18019807  .00039895  00000+0  55469-3 0  9995
2 49812  97.3323 102.4988 0006299  67.0553 293.1366 15.56866762117794
JINZIJING 1 03          
1 49813U 21117B   24013.05052871  .00316487  00000+0  15894-2 0  9992
2 49813  97.3184 102.5925 0002884  11.9726 348.1610 15.80875142117813
GLOBAL-17               
1 49949U 21120A   24012.91332577  .00008957  00000+0  23513-3 0  9992
2 49949  42.0037 192.2132 0012095 287.9530  71.9991 15.38701468118250
GLOBAL-16               
1 49950U 21120B   24012.88257820  .00021621  00000+0  55736-3 0  9992
2 49950  42.0037 191.9639 0011389 291.6799  68.2828 15.38668472118248
XW-3 (CAS-9)            
1 50466U 21131B   24013.21441587  .00001031  00000+0  34620-3 0  9993
2 50466  98.5389  99.0170 0003537 220.6700 139.4223 14.39293589107562
UMBRA-02                
1 50986U 22002C   24013.13143072  .00042814  00000+0  20943-2 0  9993
2 50986  97.4154  80.6026 0000284 169.8260 190.2980 15.18068562110540
TEVEL-3                 
1 50988U 22002E   24013.14096155  .00048492  00000+0  12729-2 0  9996
2 50988  97.4058  85.1135 0005081 201.7362 158.3669 15.38469607110888
TEVEL-8                 
1 50989U 22002F   24013.17027177  .00050882  00000+0  13392-2 0  9991
2 50989  97.4077  85.2245 0004981 200.1255 159.9794 15.38375468110882
ION SCV-004             
1 50993U 22002K   24013.14808298  .00005284  00000+0  27445-3 0  9995
2 50993  97.4122  77.5641 0007325 217.0874 142.9854 15.16503290110354
TEVEL-5                 
1 50998U 22002Q   24013.19257719  .00051667  00000+0  12848-2 0  9997
2 50998  97.4054  85.8934 0005923 194.5326 165.5751 15.40108175110945
TEVEL-6                 
1 50999U 22002R   24013.19226398  .00050540  00000+0  12581-2 0  9990
2 50999  97.4052  85.8805 0005891 194.3668 165.7411 15.40082048110947
TEVEL-1                 
1 51013U 22002AF  24013.15905738  .00050691  00000+0  13336-2 0  9992
2 51013  97.4050  85.0329 0004924 201.1187 158.9855 15.38390498110882
SANOSAT-1               
1 51031U 22002AZ  24013.18065339  .00430151  00000+0  25584-2 0  9990
2 51031  97.4086  93.5225 0003613 249.3784 110.7094 15.76784216111363
IRIS-A                  
1 51044U 22002BN  24013.13774427  .00018428  00000+0  73960-3 0  9995
2 51044  97.4084  80.8320 0006198 215.5920 144.4905 15.25011437110599
FLOCK 4X-28             
1 51045U 22002BP  24013.20128004  .00042152  00000+0  96740-3 0  9990
2 51045  97.4066  88.3342 0006225 168.8167 191.3219 15.42579905111083
FLOCK 4X-19             
1 51046U 22002BQ  24012.72892754  .00059096  00000+0  95937-3 0  9999
2 51046  97.4035  91.2173 0002979 164.2446 195.8900 15.52538588111211
KEPLER-19               
1 51051U 22002BV  24012.94686672  .00014680  00000+0  63968-3 0  9998
2 51051  97.4126  79.6885 0006418 223.1765 136.8969 15.22279203110480
ETV-A1                  
1 51060U 22002CE  24013.16244843  .00007810  00000+0  38031-3 0  9993
2 51060  97.4144  78.8054 0007173 245.2781 114.7707 15.18613589110424
BRO-5                   
1 51061U 22002CF  24013.15292345  .00009435  00000+0  44682-3 0  9997
2 51061  97.4191  79.8699 0007228 247.5206 112.5264 15.19523309110471
TEVEL-7                 
1 51062U 22002CG  24013.16675618  .00050631  00000+0  13301-2 0  9994
2 51062  97.4070  85.1908 0005037 200.3137 159.7909 15.38434495110889
TEVEL-4                 
1 51063U 22002CH  24013.18448391  .00050978  00000+0  13452-2 0  9994
2 51063  97.4070  85.1600 0004936 199.7870 160.3184 15.38295732110883
TEVEL-2                 
1 51069U 22002CP  24013.14135675  .00051031  00000+0  13383-2 0  9998
2 51069  97.4056  85.0811 0005010 201.8921 158.2111 15.38485697110889
VZLUSAT-2               
1 51085U 22002DF  24013.15550600  .00013620  00000+0  59198-3 0  9993
2 51085  97.4118  79.6614 0010408 236.3137 123.7107 15.22353386110496
L-SAR 01A               
1 51284U 22007A   24013.19785639  .00001397  00000+0  15654-3 0  9992
2 51284  97.8101  22.3069 0001615  88.3750 271.7651 14.88428841106682
INSPIRESAT-1            
1 51657U 22013B   24013.02988253  .00009721  00000+0  43049-3 0  9990
2 51657  97.5409  29.1701 0009879   8.6266 351.5137 15.21811514105786
INS-2TD                 
1 51658U 22013C   24012.58845082  .00031316  00000+0  10189-2 0  9996
2 51658  97.5355  31.9113 0007678   6.6973 353.4369 15.31790641105936
L-SAR 01B               
1 51822U 22018A   24013.23139859  .00001460  00000+0  16331-3 0  9998
2 51822  97.8106  22.3100 0001376  88.2628 271.8747 14.88418459101921
2022-019D               
1 51827U 22019D   24013.20202095  .00011806  00000+0  58115-3 0  9995
2 51827  97.4537  87.2317 0015282  66.9910 293.2934 15.18037251103556
2022-019G               
1 51830U 22019G   24013.21092847  .00035550  00000+0  11587-2 0  9995
2 51830  97.4486  91.4524 0012419  60.5250 299.7229 15.31658700103850
JILIN-1 GAOFEN 03D14    
1 51831U 22019H   24013.21191630  .00016128  00000+0  72013-3 0  9998
2 51831  97.4530  88.7042 0017569  62.9096 297.3929 15.21302046103657
2022-019J               
1 51832U 22019J   24013.18540289  .00002922  00000+0  16687-3 0  9995
2 51832  97.4529  85.6848 0011391  78.5329 281.7181 15.13441857103455
JILIN-1 GAOFEN 03D16    
1 51834U 22019L   24013.20414535  .00015783  00000+0  70611-3 0  9990
2 51834  97.4536  88.7466 0015190  71.5448 288.7437 15.21274428103651
JILIN-1 GAOFEN 03D11    
1 51835U 22019M   24013.19726416  .00015832  00000+0  70700-3 0  9997
2 51835  97.4537  88.7567 0016471  64.8869 295.4074 15.21319304103655
JILIN-1 GAOFEN 03D17    
1 51838U 22019Q   24013.20732818  .00016130  00000+0  71369-3 0  9999
2 51838  97.4529  88.9792 0013511  69.2084 291.0598 15.21670276103674
JILIN-1 GAOFEN 03D15    
1 51839U 22019R   24013.18257415  .00015071  00000+0  67429-3 0  9997
2 51839  97.4515  88.6121 0011287  61.3095 298.9274 15.21331413103658
JILIN-1 GAOFEN 03D10    
1 51840U 22019S   24013.16847355  .00015490  00000+0  69305-3 0  9995
2 51840  97.4528  88.7403 0013780  61.0475 299.2141 15.21296673103652
JILIN-1 GAOFEN 03D12    
1 51841U 22019T   24013.16134492  .00016119  00000+0  72075-3 0  9994
2 51841  97.4518  88.6635 0013962  61.0166 299.2468 15.21306096103650
JILIN-1 GAOFEN 03D18    
1 51844U 22019W   24013.15284441  .00016512  00000+0  73621-3 0  9991
2 51844  97.4508  88.4600 0019531  66.6605 293.6683 15.21312831103548
2022-023F               
1 51951U 22023F   24013.21121634  .00038094  00000+0  17043-2 0  9990
2 51951  63.4822  42.4926 0078202 345.4924  14.3943 15.18337500103196
NOOR-2                  
1 51954U 22024A   24013.19378937  .00073926  00000+0  11571-2 0  9994
2 51954  58.2743 269.0298 0015734 138.1348 222.0932 15.53079604103508
ORESAT0                 
1 52017U 22026K   24012.96157536  .00038159  00000+0  10892-2 0  9995
2 52017  97.5062  22.4802 0019640  64.3090 296.0179 15.35738820101611
CZ-4C R/B               
1 52085U 22027B   24013.06899764  .00000015  00000+0  12499-3 0  9995
2 52085  63.3972 256.8120 0154823  28.7410 332.2048 13.65370808 91048
